NORAD_CAT_ID,OBJECT_NAME,OBJECT_TYPE,EPOCH,MEAN_MOTION,ECCENTRICITY,INCLINATION,RA_OF_ASC_NODE,ARG_OF_PERICENTER,MEAN_ANOMALY,BSTAR,MEAN_MOTION_DOT,MEAN_MOTION_DDOT,TLE_LINE0,TLE_LINE1,TLE_LINE2,SEMIMAJOR_AXIS,PERIOD,APOGEE,PERIGEE,DECAYED
54172.0,STARLINK-5117,PAYLOAD,2023-05-13 18:23:56,15.08841397,8.95e-05,53.2162,312.0885,84.9803,275.1291,6.2873e-05,7.13e-06,0.0,0 STARLINK-5117,1 54172U 22141R   23133.76662903  .00000713  00000-0  62873-4 0  9991,2 54172  53.2162 312.0885 0000895  84.9803 275.1291 15.08841397 30221,6917.876,95.437,540.36,539.122,0.0
54172.0,STARLINK-5117,PAYLOAD,2023-05-14 18:14:43,15.08844782,8.89e-05,53.2168,307.6258,101.7383,258.3709,3.2162e-05,2.24e-06,0.0,0 STARLINK-5117,1 54172U 22141R   23134.76022738  .00000224  00000-0  32162-4 0  9993,2 54172  53.2168 307.6258 0000889 101.7383 258.3709 15.08844782 30379,6917.866,95.437,540.346,539.116,0.0
54172.0,STARLINK-5117,PAYLOAD,2023-05-14 23:00:52,15.08833518,0.0001559,53.2174,306.7328,140.9008,219.2097,0.00031494,4.727e-05,0.0,0 STARLINK-5117,1 54172U 22141R   23134.95894567  .00004727  00000-0  31494-3 0  9999,2 54172  53.2174 306.7328 0001559 140.9008 219.2097 15.08833518 30403,6917.9,95.438,540.844,538.687,0.0
54172.0,STARLINK-5117,PAYLOAD,2023-05-15 11:43:58,15.08831566,0.0001116,53.2168,304.355,94.009,266.103,5.1196e-05,5.27e-06,0.0,0 STARLINK-5117,1 54172U 22141R   23135.48887663  .00000527  00000-0  51196-4 0  9993,2 54172  53.2168 304.3550 0001116  94.0090 266.1030 15.08831566 30483,6917.906,95.438,540.543,538.999,0.0
54172.0,STARLINK-5117,PAYLOAD,2023-05-15 18:05:30,15.08841287,0.0001069,53.2162,303.1676,96.0463,264.065,0.00010284,1.349e-05,0.0,0 STARLINK-5117,1 54172U 22141R   23135.75382973  .00001349  00000-0  10284-3 0  9992,2 54172  53.2162 303.1676 0001069  96.0463 264.0650 15.08841287 30527,6917.876,95.437,540.481,539.002,0.0
54172.0,STARLINK-5117,PAYLOAD,2023-05-16 11:34:45,15.08842648,0.0001112,53.2159,299.8997,135.0026,225.1057,-2.6075e-05,-7.03e-06,0.0,0 STARLINK-5117,1 54172U 22141R   23136.48247333 -.00000703  00000-0 -26075-4 0  9994,2 54172  53.2159 299.8997 0001112 135.0026 225.1057 15.08842648 30631,6917.872,95.437,540.507,538.968,0.0
54172.0,STARLINK-5117,PAYLOAD,2023-05-16 17:56:18,15.08843237,9.16e-05,53.2157,298.7099,125.0494,235.0584,-9.2356e-06,-4.35e-06,0.0,0 STARLINK-5117,1 54172U 22141R   23136.74743235 -.00000435  00000-0 -92356-5 0  9993,2 54172  53.2157 298.7099 0000916 125.0494 235.0584 15.08843237 30673,6917.87,95.437,540.369,539.102,0.0
54172.0,STARLINK-5117,PAYLOAD,2023-05-17 03:28:37,15.08840096,8.71e-05,53.215,296.9259,130.3011,229.8058,2.6668e-05,1.37e-06,0.0,0 STARLINK-5117,1 54172U 22141R   23137.14487310  .00000137  00000-0  26668-4 0  9996,2 54172  53.2150 296.9259 0000871 130.3011 229.8058 15.08840096 30732,6917.88,95.438,540.348,539.143,0.0
54172.0,STARLINK-5117,PAYLOAD,2023-05-17 17:47:05,15.08836958,9.4e-05,53.2164,294.2505,115.9352,244.1737,5.8755e-05,6.47e-06,0.0,0 STARLINK-5117,1 54172U 22141R   23137.74103716  .00000647  00000-0  58755-4 0  9995,2 54172  53.2164 294.2505 0000940 115.9352 244.1737 15.08836958 30822,6917.89,95.438,540.405,539.104,0.0
54172.0,STARLINK-5117,PAYLOAD,2023-05-18 03:19:24,15.08839267,8.4e-05,53.2167,292.4644,100.527,259.5817,9.0066e-05,1.146e-05,0.0,0 STARLINK-5117,1 54172U 22141R   23138.13847530  .00001146  00000-0  90066-4 0  9994,2 54172  53.2167 292.4644 0000840 100.5270 259.5817 15.08839267 30888,6917.883,95.438,540.329,539.167,0.0
54172.0,STARLINK-5117,PAYLOAD,2023-05-18 19:13:15,15.08838877,9.23e-05,53.2164,289.4899,92.3496,267.7602,5.9142e-05,6.54e-06,0.0,0 STARLINK-5117,1 54172U 22141R   23138.80087744  .00000654  00000-0  59142-4 0  9994,2 54172  53.2164 289.4899 0000923  92.3496 267.7602 15.08838877 30983,6917.884,95.438,540.387,539.11,0.0
54172.0,STARLINK-5117,PAYLOAD,2023-05-20 03:00:58,15.08846036,8.15e-05,53.2161,283.5423,82.4499,277.6586,9.2952e-05,1.192e-05,0.0,0 STARLINK-5117,1 54172U 22141R   23140.12567241  .00001192  00000-0  92952-4 0  9991,2 54172  53.2161 283.5423 0000815  82.4499 277.6586 15.08846036 31181,6917.862,95.437,540.291,539.163,0.0
54172.0,STARLINK-5117,PAYLOAD,2023-05-20 15:44:02,15.08847383,8.7e-05,53.216,281.1631,90.6683,269.4409,0.00010072,1.316e-05,0.0,0 STARLINK-5117,1 54172U 22141R   23140.65558962  .00001316  00000-0  10072-3 0  9999,2 54172  53.2160 281.1631 0000870  90.6683 269.4409 15.08847383 31260,6917.858,95.437,540.325,539.121,0.0
54172.0,STARLINK-5117,PAYLOAD,2023-05-21 09:13:17,15.08824688,0.0001271,53.2187,277.8864,118.109,242.0031,0.000157,2.211e-05,0.0,0 STARLINK-5117,1 54172U 22141R   23141.38423522  .00002211  00000-0  15700-3 0  9991,2 54172  53.2187 277.8864 0001271 118.1090 242.0031 15.08824688 31376,6917.927,95.439,540.671,538.913,0.0
54172.0,STARLINK-5117,PAYLOAD,2023-05-21 15:34:50,15.08835802,0.0001018,53.2174,276.6983,115.5582,244.5515,-7.1682e-06,-4.02e-06,0.0,0 STARLINK-5117,1 54172U 22141R   23141.64919946 -.00000402  00000-0 -71682-5 0  9995,2 54172  53.2174 276.6983 0001018 115.5582 244.5515 15.08835802 31416,6917.893,95.438,540.462,539.054,0.0
54172.0,STARLINK-5117,PAYLOAD,2023-05-22 09:04:04,15.08847495,0.0001252,53.2174,273.4265,112.9988,247.1136,-4.1513e-05,-9.49e-06,0.0,0 STARLINK-5117,1 54172U 22141R   23142.37783425 -.00000949  00000-0 -41513-4 0  9992,2 54172  53.2174 273.4265 0001252 112.9988 247.1136 15.08847495 31526,6917.857,95.437,540.589,538.856,0.0
54172.0,STARLINK-5117,PAYLOAD,2023-05-22 15:25:36,15.08856236,0.0001043,53.2174,272.2402,103.0843,257.0266,3.3566e-05,2.47e-06,0.0,0 STARLINK-5117,1 54172U 22141R   23142.64278730  .00000247  00000-0  33566-4 0  9998,2 54172  53.2174 272.2402 0001043 103.0843 257.0266 15.08856236 31566,6917.831,95.437,540.417,538.974,0.0
54172.0,STARLINK-5117,PAYLOAD,2023-05-23 12:05:38,15.08831425,0.0001107,53.2164,268.3747,110.3268,249.7843,0.00011635,1.564e-05,0.0,0 STARLINK-5117,1 54172U 22141R   23143.50392258  .00001564  00000-0  11635-3 0  9991,2 54172  53.2164 268.3747 0001107 110.3268 249.7843 15.08831425 31692,6917.907,95.438,540.537,539.006,0.0
54172.0,STARLINK-5117,PAYLOAD,2023-05-23 15:16:25,15.08832558,0.0001001,53.2163,267.7806,99.0046,261.1059,0.00011653,1.567e-05,0.0,0 STARLINK-5117,1 54172U 22141R   23143.63640334  .00001567  00000-0  11653-3 0  9999,2 54172  53.2163 267.7806 0001001  99.0046 261.1059 15.08832558 31718,6917.903,95.438,540.461,539.076,0.0
54172.0,STARLINK-5117,PAYLOAD,2023-05-24 13:31:48,15.08843761,9.41e-05,53.2168,263.6178,82.9113,277.1986,3.0343e-05,1.95e-06,0.0,0 STARLINK-5117,1 54172U 22141R   23144.56376113  .00000195  00000-0  30343-4 0  9997,2 54172  53.2168 263.6178 0000941  82.9113 277.1986 15.08843761 31857,6917.869,95.437,540.385,539.083,0.0
54172.0,STARLINK-5117,PAYLOAD,2023-05-25 16:33:22,15.08840331,0.0001034,53.2169,258.5628,79.98,280.1309,0.00012398,1.686e-05,0.0,0 STARLINK-5117,1 54172U 22141R   23145.68984334  .00001686  00000-0  12398-3 0  9996,2 54172  53.2169 258.5628 0001034  79.9800 280.1309 15.08840331 32027,6917.879,95.438,540.46,539.029,0.0
54172.0,STARLINK-5117,PAYLOAD,2023-05-26 13:13:23,15.08845125,9.18e-05,53.2164,254.6957,70.8711,289.238,7.7479e-05,9.46e-06,0.0,0 STARLINK-5117,1 54172U 22141R   23146.55096161  .00000946  00000-0  77479-4 0  9995,2 54172  53.2164 254.6957 0000918  70.8711 289.2380 15.08845125 32154,6917.865,95.437,540.365,539.095,0.0
54172.0,STARLINK-5117,PAYLOAD,2023-05-26 16:24:09,15.08846757,9.78e-05,53.2163,254.1013,95.6654,264.4449,9.9927e-05,1.303e-05,0.0,0 STARLINK-5117,1 54172U 22141R   23146.68343969  .00001303  00000-0  99927-4 0  9990,2 54172  53.2163 254.1013 0000978  95.6654 264.4449 15.08846757 32173,6917.86,95.437,540.401,539.048,0.0
54172.0,STARLINK-5117,PAYLOAD,2023-05-27 00:21:05,15.08841374,7.48e-05,53.2157,252.6155,87.2577,272.85,8.6666e-05,1.092e-05,0.0,0 STARLINK-5117,1 54172U 22141R   23147.01464249  .00001092  00000-0  86666-4 0  9994,2 54172  53.2157 252.6155 0000748  87.2577 272.8500 15.08841374 32229,6917.876,95.437,540.259,539.224,0.0
54172.0,STARLINK-5117,PAYLOAD,2023-05-27 09:53:24,15.08829713,9e-05,53.2155,250.8316,89.516,270.5935,0.00013724,1.897e-05,0.0,0 STARLINK-5117,1 54172U 22141R   23147.41208980  .00001897  00000-0  13724-3 0  9993,2 54172  53.2155 250.8316 0000900  89.5160 270.5935 15.08829713 32285,6917.912,95.438,540.399,539.154,0.0
54172.0,STARLINK-5117,PAYLOAD,2023-05-27 14:39:33,15.08842417,8.15e-05,53.2159,249.9378,96.5738,263.5347,4.4043e-05,4.13e-06,0.0,0 STARLINK-5117,1 54172U 22141R   23147.61080283  .00000413  00000-0  44043-4 0  9991,2 54172  53.2159 249.9378 0000815  96.5738 263.5347 15.08842417 32319,6917.873,95.437,540.302,539.174,0.0
54172.0,STARLINK-5117,PAYLOAD,2023-05-28 00:11:52,15.08842317,7.7e-05,53.2155,248.1549,91.6056,268.5025,4.2647e-05,3.91e-06,0.0,0 STARLINK-5117,1 54172U 22141R   23148.00824252  .00000391  00000-0  42647-4 0  9990,2 54172  53.2155 248.1549 0000770  91.6056 268.5025 15.08842317 32378,6917.873,95.437,540.271,539.206,0.0
54172.0,STARLINK-5117,PAYLOAD,2023-05-28 12:54:56,15.08846691,8.2e-05,53.2152,245.7763,86.6158,273.4928,5.609e-05,6.05e-06,0.0,0 STARLINK-5117,1 54172U 22141R   23148.53815933  .00000605  00000-0  56090-4 0  9999,2 54172  53.2152 245.7763 0000820  86.6158 273.4928 15.08846691 32454,6917.86,95.437,540.292,539.158,0.0
54172.0,STARLINK-5117,PAYLOAD,2023-05-29 00:02:38,15.08846043,8.27e-05,53.2151,243.6943,87.6062,272.5025,7.7722e-05,9.5e-06,0.0,0 STARLINK-5117,1 54172U 22141R   23149.00183747  .00000950  00000-0  77722-4 0  9991,2 54172  53.2151 243.6943 0000827  87.6062 272.5025 15.08846043 32529,6917.862,95.437,540.299,539.155,0.0
54172.0,STARLINK-5117,PAYLOAD,2023-05-29 09:34:58,15.08836937,8.65e-05,53.2147,241.9113,83.1341,276.9749,5.2455e-05,5.47e-06,0.0,0 STARLINK-5117,1 54172U 22141R   23149.39928398  .00000547  00000-0  52455-4 0  9990,2 54172  53.2147 241.9113 0000865  83.1341 276.9749 15.08836937 32585,6917.89,95.438,540.353,539.156,0.0
